{"fetched_at":"2026-03-29T16:36:15Z","count":15609,"tles":[{"name":"STARLINK-11201 [DTC]","line1":"1 60113U 24118A   26087.81986356  .00001386  00000+0  16308-4 0  9995","line2":"2 60113  53.1607 127.2732 0001782  67.3667 292.7539 15.69699249100998","category":"Starlink"}]}