{
  "norad_id": 60113,
  "name": "STARLINK-11201 [DTC]",
  "history": [
    {
      "epoch": "2026-03-28T19:40:36.211584Z",
      "apogee_km": 360.9584781606163,
      "perigee_km": 358.5565535236083,
      "latitude_deg": -2.1500533366012368e-05,
      "longitude_deg": 5.8874720885348815,
      "height_km": 360.20833718314094,
      "semi_major_axis_km": 6737.894515842112,
      "eccentricity": 0.00017824,
      "inclination_deg": 53.1607,
      "raan_deg": 127.2732,
      "arg_perigee_deg": 67.3667,
      "mean_anomaly_deg": 292.7539,
      "mean_motion_rev_day": 15.69699249
    }
  ]
}